[
  {
    "CCSDS_OMM_VERS": "2.0",
    "COMMENT": "GENERATED VIA SPACE-TRACK.ORG API",
    "CREATION_DATE": "2021-12-03T17:32:05",
    "ORIGINATOR": "18 SPCS",
    "OBJECT_NAME": "THOR ABLESTAR DEB",
    "OBJECT_ID": "1961-015DL",
    "CENTER_NAME": "EARTH",
    "REF_FRAME": "TEME",
    "TIME_SYSTEM": "UTC",
    "MEAN_ELEMENT_THEORY": "SGP4",
    "EPOCH": "2021-12-03T11:52:46.316064",
    "MEAN_MOTION": "13.91300241",
    "ECCENTRICITY": "0.00840110",
    "INCLINATION": "66.9244",
    "RA_OF_ASC_NODE": "253.3229",
    "ARG_OF_PERICENTER": "223.2105",
    "MEAN_ANOMALY": "136.2364",
    "EPHEMERIS_TYPE": "0",
    "CLASSIFICATION_TYPE": "U",
    "NORAD_CAT_ID": "334",
    "ELEMENT_SET_NO": "999",
    "REV_AT_EPOCH": "6556",
    "BSTAR": "0.00002440000000",
    "MEAN_MOTION_DOT": "-0.00000044",
    "MEAN_MOTION_DDOT": "0.0000000000000",
    "SEMIMAJOR_AXIS": "7302.215",
    "PERIOD": "103.500",
    "APOAPSIS": "985.426",
    "PERIAPSIS": "862.733",
    "OBJECT_TYPE": "DEBRIS",
    "RCS_SIZE": "SMALL",
    "COUNTRY_CODE": "US",
    "LAUNCH_DATE": "1961-06-29",
    "SITE": "AFETR",
    "DECAY_DATE": null,
    "FILE": "3231740",
    "GP_ID": "190990346",
    "TLE_LINE0": "0 THOR ABLESTAR DEB",
    "TLE_LINE1": "1 00334U 61015DL  21337.49498051 -.00000044  00000-0  24400-4 0  9992",
    "TLE_LINE2": "2 00334  66.9244 253.3229 0084011 223.2105 136.2364 13.91300241 65569"
  },
  {
    "CCSDS_OMM_VERS": "2.0",
    "COMMENT": "GENERATED VIA SPACE-TRACK.ORG API",
    "CREATION_DATE": "2021-12-03T17:32:05",
    "ORIGINATOR": "18 SPCS",
    "OBJECT_NAME": "THOR ABLESTAR DEB",
    "OBJECT_ID": "1961-015DM",
    "CENTER_NAME": "EARTH",
    "REF_FRAME": "TEME",
    "TIME_SYSTEM": "UTC",
    "MEAN_ELEMENT_THEORY": "SGP4",
    "EPOCH": "2021-12-03T12:16:26.609376",
    "MEAN_MOTION": "14.17599828",
    "ECCENTRICITY": "0.00445070",
    "INCLINATION": "66.8437",
    "RA_OF_ASC_NODE": "47.7980",
    "ARG_OF_PERICENTER": "311.1727",
    "MEAN_ANOMALY": "48.5530",
    "EPHEMERIS_TYPE": "0",
    "CLASSIFICATION_TYPE": "U",
    "NORAD_CAT_ID": "335",
    "ELEMENT_SET_NO": "999",
    "REV_AT_EPOCH": "9210",
    "BSTAR": "0.00024435000000",
    "MEAN_MOTION_DOT": "0.00000420",
    "MEAN_MOTION_DDOT": "0.0000000000000",
    "SEMIMAJOR_AXIS": "7211.618",
    "PERIOD": "101.580",
    "APOAPSIS": "865.580",
    "PERIAPSIS": "801.387",
    "OBJECT_TYPE": "DEBRIS",
    "RCS_SIZE": "SMALL",
    "COUNTRY_CODE": "US",
    "LAUNCH_DATE": "1961-06-29",
    "SITE": "AFETR",
    "DECAY_DATE": null,
    "FILE": "3231740",
    "GP_ID": "190990598",
    "TLE_LINE0": "0 THOR ABLESTAR DEB",
    "TLE_LINE1": "1 00335U 61015DM  21337.51141909  .00000420  00000-0  24435-3 0  9997",
    "TLE_LINE2": "2 00335  66.8437  47.7980 0044507 311.1727  48.5530 14.17599828 92105"
  },
  {
    "CCSDS_OMM_VERS": "2.0",
    "COMMENT": "GENERATED VIA SPACE-TRACK.ORG API",
    "CREATION_DATE": "2021-12-04T06:56:11",
    "ORIGINATOR": "18 SPCS",
    "OBJECT_NAME": "THOR ABLESTAR DEB",
    "OBJECT_ID": "1961-015DN",
    "CENTER_NAME": "EARTH",
    "REF_FRAME": "TEME",
    "TIME_SYSTEM": "UTC",
    "MEAN_ELEMENT_THEORY": "SGP4",
    "EPOCH": "2021-12-04T01:34:31.673568",
    "MEAN_MOTION": "13.68499149",
    "ECCENTRICITY": "0.00836170",
    "INCLINATION": "67.0307",
    "RA_OF_ASC_NODE": "93.6435",
    "ARG_OF_PERICENTER": "242.6201",
    "MEAN_ANOMALY": "290.8385",
    "EPHEMERIS_TYPE": "0",
    "CLASSIFICATION_TYPE": "U",
    "NORAD_CAT_ID": "336",
    "ELEMENT_SET_NO": "999",
    "REV_AT_EPOCH": "1308",
    "BSTAR": "0.00007928200000",
    "MEAN_MOTION_DOT": "-0.00000001",
    "MEAN_MOTION_DDOT": "0.0000000000000",
    "SEMIMAJOR_AXIS": "7383.101",
    "PERIOD": "105.225",
    "APOAPSIS": "1066.701",
    "PERIAPSIS": "943.231",
    "OBJECT_TYPE": "DEBRIS",
    "RCS_SIZE": "SMALL",
    "COUNTRY_CODE": "US",
    "LAUNCH_DATE": "1961-06-29",
    "SITE": "AFETR",
    "DECAY_DATE": null,
    "FILE": "3232060",
    "GP_ID": "191044002",
    "TLE_LINE0": "0 THOR ABLESTAR DEB",
    "TLE_LINE1": "1   336U 61015DN  21338.06564437 -.00000001  00000-0  79282-4 0  9991",
    "TLE_LINE2": "2   336  67.0307  93.6435 0083617 242.6201 290.8385 13.68499149 13080"
  },
  {
    "CCSDS_OMM_VERS": "2.0",
    "COMMENT": "GENERATED VIA SPACE-TRACK.ORG API",
    "CREATION_DATE": "2021-12-04T06:16:11",
    "ORIGINATOR": "18 SPCS",
    "OBJECT_NAME": "THOR ABLESTAR DEB",
    "OBJECT_ID": "1961-015DP",
    "CENTER_NAME": "EARTH",
    "REF_FRAME": "TEME",
    "TIME_SYSTEM": "UTC",
    "MEAN_ELEMENT_THEORY": "SGP4",
    "EPOCH": "2021-12-04T02:43:48.992736",
    "MEAN_MOTION": "13.74601056",
    "ECCENTRICITY": "0.01025100",
    "INCLINATION": "67.0085",
    "RA_OF_ASC_NODE": "229.0305",
    "ARG_OF_PERICENTER": "8.5461",
    "MEAN_ANOMALY": "351.7326",
    "EPHEMERIS_TYPE": "0",
    "CLASSIFICATION_TYPE": "U",
    "NORAD_CAT_ID": "337",
    "ELEMENT_SET_NO": "999",
    "REV_AT_EPOCH": "1742",
    "BSTAR": "0.00033531000000",
    "MEAN_MOTION_DOT": "0.00000259",
    "MEAN_MOTION_DDOT": "0.0000000000000",
    "SEMIMAJOR_AXIS": "7361.236",
    "PERIOD": "104.758",
    "APOAPSIS": "1058.561",
    "PERIAPSIS": "907.641",
    "OBJECT_TYPE": "DEBRIS",
    "RCS_SIZE": "SMALL",
    "COUNTRY_CODE": "US",
    "LAUNCH_DATE": "1961-06-29",
    "SITE": "AFETR",
    "DECAY_DATE": null,
    "FILE": "3231938",
    "GP_ID": "191041047",
    "TLE_LINE0": "0 THOR ABLESTAR DEB",
    "TLE_LINE1": "1   337U 61015DP  21338.11376149  .00000259  00000-0  33531-3 0  9999",
    "TLE_LINE2": "2   337  67.0085 229.0305 0102510   8.5461 351.7326 13.74601056 17429"
  },
  {
    "CCSDS_OMM_VERS": "2.0",
    "COMMENT": "GENERATED VIA SPACE-TRACK.ORG API",
    "CREATION_DATE": "2021-12-03T17:32:05",
    "ORIGINATOR": "18 SPCS",
    "OBJECT_NAME": "TELSTAR 1",
    "OBJECT_ID": "1962-029A",
    "CENTER_NAME": "EARTH",
    "REF_FRAME": "TEME",
    "TIME_SYSTEM": "UTC",
    "MEAN_ELEMENT_THEORY": "SGP4",
    "EPOCH": "2021-12-03T14:26:32.216928",
    "MEAN_MOTION": "9.12876622",
    "ECCENTRICITY": "0.24340930",
    "INCLINATION": "44.7871",
    "RA_OF_ASC_NODE": "162.2795",
    "ARG_OF_PERICENTER": "88.9391",
    "MEAN_ANOMALY": "89.6550",
    "EPHEMERIS_TYPE": "0",
    "CLASSIFICATION_TYPE": "U",
    "NORAD_CAT_ID": "340",
    "ELEMENT_SET_NO": "999",
    "REV_AT_EPOCH": "98115",
    "BSTAR": "0.00042105000000",
    "MEAN_MOTION_DOT": "0.00000009",
    "MEAN_MOTION_DDOT": "0.0000000000000",
    "SEMIMAJOR_AXIS": "9670.757",
    "PERIOD": "157.743",
    "APOAPSIS": "5646.574",
    "PERIAPSIS": "938.669",
    "OBJECT_TYPE": "PAYLOAD",
    "RCS_SIZE": "MEDIUM",
    "COUNTRY_CODE": "US",
    "LAUNCH_DATE": "1962-07-10",
    "SITE": "AFETR",
    "DECAY_DATE": null,
    "FILE": "3231740",
    "GP_ID": "190989847",
    "TLE_LINE0": "0 TELSTAR 1",
    "TLE_LINE1": "1 00340U 62029A   21337.60176177  .00000009  00000-0  42105-3 0  9991",
    "TLE_LINE2": "2 00340  44.7871 162.2795 2434093  88.9391  89.6550  9.12876622981155"
  },
  {
    "CCSDS_OMM_VERS": "2.0",
    "COMMENT": "GENERATED VIA SPACE-TRACK.ORG API",
    "CREATION_DATE": "2021-12-03T17:32:05",
    "ORIGINATOR": "18 SPCS",
    "OBJECT_NAME": "DELTA 1 R\/B",
    "OBJECT_ID": "1962-029B",
    "CENTER_NAME": "EARTH",
    "REF_FRAME": "TEME",
    "TIME_SYSTEM": "UTC",
    "MEAN_ELEMENT_THEORY": "SGP4",
    "EPOCH": "2021-12-02T23:08:58.847136",
    "MEAN_MOTION": "9.14252488",
    "ECCENTRICITY": "0.24187870",
    "INCLINATION": "44.8037",
    "RA_OF_ASC_NODE": "67.6346",
    "ARG_OF_PERICENTER": "196.6306",
    "MEAN_ANOMALY": "344.6522",
    "EPHEMERIS_TYPE": "0",
    "CLASSIFICATION_TYPE": "U",
    "NORAD_CAT_ID": "341",
    "ELEMENT_SET_NO": "999",
    "REV_AT_EPOCH": "98356",
    "BSTAR": "-0.00047904000000",
    "MEAN_MOTION_DOT": "-0.00000090",
    "MEAN_MOTION_DDOT": "0.0000000000000",
    "SEMIMAJOR_AXIS": "9661.052",
    "PERIOD": "157.506",
    "APOAPSIS": "5619.719",
    "PERIAPSIS": "946.114",
    "OBJECT_TYPE": "ROCKET BODY",
    "RCS_SIZE": "MEDIUM",
    "COUNTRY_CODE": "US",
    "LAUNCH_DATE": "1962-07-10",
    "SITE": "AFETR",
    "DECAY_DATE": null,
    "FILE": "3231740",
    "GP_ID": "190991098",
    "TLE_LINE0": "0 DELTA 1 R\/B",
    "TLE_LINE1": "1 00341U 62029B   21336.96456999 -.00000090  00000-0 -47904-3 0  9997",
    "TLE_LINE2": "2 00341  44.8037  67.6346 2418787 196.6306 344.6522  9.14252488983566"
  },
  {
    "CCSDS_OMM_VERS": "2.0",
    "COMMENT": "GENERATED VIA SPACE-TRACK.ORG API",
    "CREATION_DATE": "2021-12-04T02:39:20",
    "ORIGINATOR": "18 SPCS",
    "OBJECT_NAME": "THOR ABLESTAR DEB",
    "OBJECT_ID": "1961-015DQ",
    "CENTER_NAME": "EARTH",
    "REF_FRAME": "TEME",
    "TIME_SYSTEM": "UTC",
    "MEAN_ELEMENT_THEORY": "SGP4",
    "EPOCH": "2021-12-03T21:27:02.693952",
    "MEAN_MOTION": "14.20820571",
    "ECCENTRICITY": "0.01317390",
    "INCLINATION": "66.9110",
    "RA_OF_ASC_NODE": "147.7538",
    "ARG_OF_PERICENTER": "321.7504",
    "MEAN_ANOMALY": "37.4299",
    "EPHEMERIS_TYPE": "0",
    "CLASSIFICATION_TYPE": "U",
    "NORAD_CAT_ID": "350",
    "ELEMENT_SET_NO": "999",
    "REV_AT_EPOCH": "12752",
    "BSTAR": "-0.00000100600000",
    "MEAN_MOTION_DOT": "-0.00000085",
    "MEAN_MOTION_DDOT": "0.0000000000000",
    "SEMIMAJOR_AXIS": "7200.716",
    "PERIOD": "101.350",
    "APOAPSIS": "917.443",
    "PERIAPSIS": "727.720",
    "OBJECT_TYPE": "DEBRIS",
    "RCS_SIZE": "MEDIUM",
    "COUNTRY_CODE": "US",
    "LAUNCH_DATE": "1961-06-29",
    "SITE": "AFETR",
    "DECAY_DATE": null,
    "FILE": "3231910",
    "GP_ID": "191017283",
    "TLE_LINE0": "0 THOR ABLESTAR DEB",
    "TLE_LINE1": "1 00350U 61015DQ  21337.89378118 -.00000085  00000-0 -10060-5 0  9999",
    "TLE_LINE2": "2 00350  66.9110 147.7538 0131739 321.7504  37.4299 14.20820571127525"
  }
]
